GLOBALSTAR M023 [+]     
1 25621U 99004A   23237.41405817 -.00000043  00000+0  33716-3 0  9995
2 25621  52.0093 268.4328 0010190 104.6380   0.2293 12.62448121132141
GLOBALSTAR M040 [-]     
1 25622U 99004B   23237.45800889 -.00000048  00000+0  31308-3 0  9998
2 25622  51.9902 271.4880 0000580  51.6561  86.5505 12.61952457131705
GLOBALSTAR M036 [-]     
1 25623U 99004C   23237.28531903 -.00000106  00000+0 -34723-3 0  9998
2 25623  51.9949 184.8672 0010650 226.5342 284.4108 11.86555156100404
GLOBALSTAR M038 [-]     
1 25624U 99004D   23237.19634187 -.00000075  00000+0  16780-3 0  9994
2 25624  51.9962 177.9496 0001854 101.4250  36.6434 12.32483078120745
GLOBALSTAR M022 [-]     
1 25649U 99012A   23237.51415678 -.00000089  00000+0 -25727-4 0  9996
2 25649  52.0038 289.5842 0002315 301.6780 196.3635 12.02467989 96770
GLOBALSTAR M041 [-]     
1 25650U 99012B   23237.09091351 -.00000053  00000+0  41704-3 0  9991
2 25650  52.0011 151.9969 0002352  79.4736 280.6365 11.96645739 99017
GLOBALSTAR M046 [-]     
1 25651U 99012C   23237.51960150 -.00000097  00000+0 -94590-4 0  9992
2 25651  52.0034 263.8518 0002042  15.6226 138.5711 12.09376877103604
GLOBALSTAR M037 [+]     
1 25652U 99012D   23237.59501813 -.00000067  00000+0  20485-3 0  9995
2 25652  52.0016  38.7491 0002212 140.5631 294.8879 12.62382401127719
